{"type": "FeatureCollection", "features": [{"type": "Feature", "properties": {}, "geometry": {"type": "LineString", "coordinates": [[37.7527281, 55.8685118], [37.7543187, 55.867693], [37.7645427, 55.8624296]]}}, {"type": "Feature", "properties": {}, "geometry": {"type": "LineString", "coordinates": [[37.7645427, 55.8624296], [37.7649287, 55.8622312], [37.7677228, 55.8607925], [37.776335, 55.8563579]]}}, {"type": "Feature", "properties": {}, "geometry": {"type": "LineString", "coordinates": [[37.7648462, 55.8626153], [37.7530316, 55.8686975]]}}, {"type": "Feature", "properties": {}, "geometry": {"type": "LineString", "coordinates": [[37.776335, 55.8563579], [37.7881305, 55.8502837]]}}, {"type": "Feature", "properties": {}, "geometry": {"type": "LineString", "coordinates": [[37.7766386, 55.8565437], [37.7658636, 55.8620935], [37.7648462, 55.8626153]]}}, {"type": "Feature", "properties": {}, "geometry": {"type": "LineString", "coordinates": [[37.788434, 55.8504694], [37.7864838, 55.8514738], [37.7766386, 55.8565437]]}}, {"type": "Feature", "properties": {}, "geometry": {"type": "LineString", "coordinates": [[37.7881305, 55.8502837], [37.799931, 55.8442059]]}}, {"type": "Feature", "properties": {}, "geometry": {"type": "LineString", "coordinates": [[37.8002346, 55.8443916], [37.7958348, 55.8466578], [37.788434, 55.8504694]]}}, {"type": "Feature", "properties": {}, "geometry": {"type": "LineString", "coordinates": [[37.7633404, 55.8638326], [37.7679068, 55.8643746], [37.7680734, 55.8644083], [37.7683979, 55.8644738], [37.7752007, 55.8658481], [37.775945, 55.8659996], [37.7794636, 55.8626703], [37.7804279, 55.8617579], [37.7810439, 55.861175], [37.7811903, 55.860834], [37.7833497, 55.8558045]]}}, {"type": "Feature", "properties": {}, "geometry": {"type": "LineString", "coordinates": [[37.7610099, 55.8680182], [37.7619355, 55.8680182], [37.7634803, 55.8680072], [37.7636238, 55.8670453]]}}, {"type": "Feature", "properties": {}, "geometry": {"type": "LineString", "coordinates": [[37.7619029, 55.8684388], [37.7619355, 55.8680182], [37.7620151, 55.8669909]]}}, {"type": "Feature", "properties": {}, "geometry": {"type": "LineString", "coordinates": [[37.790839, 55.8494123], [37.7908433, 55.8495176], [37.790954, 55.8496164], [37.7912251, 55.8498774], [37.7912463, 55.850105], [37.7915557, 55.850226], [37.7926749, 55.8512897], [37.7928624, 55.8515972], [37.7930342, 55.8517267], [37.7937866, 55.8518122], [37.7942098, 55.8518234], [37.7945631, 55.8516397], [37.7951835, 55.8515542], [37.7952999, 55.851643]]}}, {"type": "Feature", "properties": {}, "geometry": {"type": "LineString", "coordinates": [[37.7645317, 55.8621022], [37.7647256, 55.8621195], [37.7649287, 55.8622312]]}}, {"type": "Feature", "properties": {}, "geometry": {"type": "LineString", "coordinates": [[37.7592947, 55.8618924], [37.7645317, 55.8621022]]}}, {"type": "Feature", "properties": {}, "geometry": {"type": "LineString", "coordinates": [[37.8028908, 55.8636609], [37.8017931, 55.8636289], [37.8011255, 55.8636], [37.793197, 55.8632945]]}}, {"type": "Feature", "properties": {}, "geometry": {"type": "LineString", "coordinates": [[37.7682551, 55.8621932], [37.7679068, 55.8643746], [37.7678808, 55.864589], [37.7674319, 55.8672299], [37.7648165, 55.8671302], [37.7636238, 55.8670453], [37.7621557, 55.8668954], [37.7620151, 55.8669909]]}}, {"type": "Feature", "properties": {}, "geometry": {"type": "LineString", "coordinates": [[37.7577227, 55.8722217], [37.7580895, 55.8719761], [37.7583901, 55.8718074], [37.7587868, 55.8715848], [37.7591838, 55.8709829], [37.7602637, 55.8704887], [37.7607364, 55.8702302], [37.7611005, 55.8700312], [37.7617158, 55.8695382], [37.7620264, 55.8687424], [37.7619029, 55.8684388]]}}, {"type": "Feature", "properties": {}, "geometry": {"type": "LineString", "coordinates": [[37.7674319, 55.8672299], [37.7676206, 55.867304], [37.7669728, 55.8722284], [37.7669517, 55.8724048], [37.7666152, 55.8767249], [37.7658455, 55.8817678], [37.7658329, 55.8818513]]}}, {"type": "Feature", "properties": {}, "geometry": {"type": "LineString", "coordinates": [[37.793197, 55.8632945], [37.7922003, 55.8684351], [37.7917571, 55.8706519]]}}, {"type": "Feature", "properties": {}, "geometry": {"type": "LineString", "coordinates": [[37.793197, 55.8632945], [37.7794636, 55.8626703], [37.7682551, 55.8621932], [37.7666432, 55.862126]]}}, {"type": "Feature", "properties": {}, "geometry": {"type": "LineString", "coordinates": [[37.7695168, 55.8530721], [37.769659, 55.8530705], [37.7697556, 55.8530739], [37.769809, 55.8530457]]}}, {"type": "Feature", "properties": {}, "geometry": {"type": "LineString", "coordinates": [[37.7691891, 55.8530227], [37.7695168, 55.8530721]]}}, {"type": "Feature", "properties": {}, "geometry": {"type": "LineString", "coordinates": [[37.7709196, 55.8530875], [37.775075, 55.8532332]]}}, {"type": "Feature", "properties": {}, "geometry": {"type": "LineString", "coordinates": [[37.7666432, 55.862126], [37.7658636, 55.8620935]]}}, {"type": "Feature", "properties": {}, "geometry": {"type": "LineString", "coordinates": [[37.7691891, 55.8530227], [37.7690467, 55.8529945], [37.7682617, 55.8529526], [37.7675456, 55.8529254], [37.7668214, 55.8528948], [37.7667022, 55.8529224], [37.7662781, 55.8529625], [37.765342, 55.8529271], [37.7644966, 55.8528335], [37.7638534, 55.8527532], [37.7634966, 55.8527389], [37.763365, 55.8527879], [37.7631587, 55.8527171], [37.7627698, 55.8527073], [37.7623901, 55.8527487], [37.7617492, 55.8527984], [37.7613562, 55.8527984], [37.760818, 55.8526921]]}}, {"type": "Feature", "properties": {}, "geometry": {"type": "LineString", "coordinates": [[37.7698977, 55.8496795], [37.7699406, 55.8498857], [37.7699272, 55.8504082], [37.7698307, 55.8506476], [37.7697851, 55.8508705], [37.7698334, 55.8510557], [37.7697583, 55.8513613], [37.7697234, 55.8517558], [37.7696268, 55.8519425], [37.7696724, 55.852075], [37.769608, 55.8522933], [37.7696617, 55.8524875], [37.7696134, 55.8526802], [37.7695785, 55.8529106], [37.7695168, 55.8530721], [37.7695034, 55.8531274], [37.7694498, 55.8532945], [37.7695169, 55.8536152], [37.7694364, 55.8542264], [37.7693586, 55.8543514], [37.7693264, 55.8544522], [37.7693613, 55.8546073], [37.7693801, 55.8547217], [37.7693237, 55.8548437], [37.7693157, 55.855473], [37.7693908, 55.8556657], [37.7691735, 55.8558825], [37.7691065, 55.8563507], [37.7690341, 55.8571455], [37.7689053, 55.857558], [37.7689081, 55.8576263]]}}, {"type": "Feature", "properties": {}, "geometry": {"type": "LineString", "coordinates": [[37.7709196, 55.8530875], [37.7706622, 55.8529986], [37.7705106, 55.8529889], [37.7703419, 55.8530648]]}}, {"type": "Feature", "properties": {}, "geometry": {"type": "LineString", "coordinates": [[37.7767081, 55.8532913], [37.7779046, 55.8533338]]}}, {"type": "Feature", "properties": {}, "geometry": {"type": "LineString", "coordinates": [[37.775075, 55.8532332], [37.7767081, 55.8532913]]}}, {"type": "Feature", "properties": {}, "geometry": {"type": "LineString", "coordinates": [[37.7703419, 55.8530648], [37.7709196, 55.8530875]]}}, {"type": "Feature", "properties": {}, "geometry": {"type": "LineString", "coordinates": [[37.769809, 55.8530457], [37.7703419, 55.8530648]]}}, {"type": "Feature", "properties": {}, "geometry": {"type": "LineString", "coordinates": [[37.7781199, 55.8507328], [37.7779046, 55.8533338]]}}, {"type": "Feature", "properties": {}, "geometry": {"type": "LineString", "coordinates": [[37.7782732, 55.8491578], [37.7780959, 55.8494167], [37.7781334, 55.8498489], [37.7781924, 55.8499528], [37.7782622, 55.8502102], [37.7782515, 55.8503548], [37.7781978, 55.8506604], [37.7781199, 55.8507328]]}}, {"type": "Feature", "properties": {}, "geometry": {"type": "LineString", "coordinates": [[37.7783559, 55.8483444], [37.7782732, 55.8491578], [37.7781924, 55.8499528], [37.7781578, 55.8502942], [37.7781199, 55.8507328]]}}, {"type": "Feature", "properties": {}, "geometry": {"type": "LineString", "coordinates": [[37.7864838, 55.8514738], [37.7866839, 55.8515968]]}}, {"type": "Feature", "properties": {}, "geometry": {"type": "LineString", "coordinates": [[37.7677228, 55.8607925], [37.7675884, 55.86071]]}}, {"type": "Feature", "properties": {}, "geometry": {"type": "LineString", "coordinates": [[37.7922003, 55.8684351], [37.7932436, 55.8685122], [37.7941218, 55.8684958], [37.7948975, 55.8685862], [37.7956439, 55.8685205], [37.7962245, 55.8686839]]}}, {"type": "Feature", "properties": {}, "geometry": {"type": "LineString", "coordinates": [[37.7689081, 55.8576263], [37.768916, 55.8578229], [37.7688248, 55.8580969], [37.7687712, 55.8585847]]}}, {"type": "Feature", "properties": {}, "geometry": {"type": "LineString", "coordinates": [[37.7948825, 55.8539628], [37.793197, 55.8632945]]}}]}